<?xml version="1.0" encoding="UTF-8"?>
<seiscomp xmlns="http://geofon.gfz-potsdam.de/ns/seiscomp3-schema/0.10" version="0.10">
  <EventParameters>
    <pick publicID="Pick/20220927000534.058836.48617">
      <time>
        <value>2022-09-27T00:00:39.425348Z</value>
      </time>
      <waveformID networkCode="PE" stationCode="SNIG" channelCode="BHZ"/>
      <phaseHint>P</phaseHint>
      <evaluationMode>manual</evaluationMode>
      <creationInfo>
        <agencyID>IGEPN</agencyID>
        <author>mmejia@sc-gui.igepn.edu.ec</author>
        <creationTime>2022-09-27T00:05:34.059031Z</creationTime>
      </creationInfo>
    </pick>
    <pick publicID="Pick/20220927000534.059201.48618">
      <time>
        <value>2022-09-27T00:00:52.348804Z</value>
      </time>
      <waveformID networkCode="PE" stationCode="SNIG" channelCode="BHN"/>
      <phaseHint>S</phaseHint>
      <evaluationMode>manual</evaluationMode>
      <creationInfo>
        <agencyID>IGEPN</agencyID>
        <author>mmejia@sc-gui.igepn.edu.ec</author>
        <creationTime>2022-09-27T00:05:34.059284Z</creationTime>
      </creationInfo>
    </pick>
    <pick publicID="Pick/20220927000534.059414.48619">
      <time>
        <value>2022-09-27T00:00:49.674844Z</value>
      </time>
      <waveformID networkCode="EC" stationCode="MCRA" channelCode="BLN"/>
      <phaseHint>P</phaseHint>
      <evaluationMode>manual</evaluationMode>
      <creationInfo>
        <agencyID>IGEPN</agencyID>
        <author>mmejia@sc-gui.igepn.edu.ec</author>
        <creationTime>2022-09-27T00:05:34.059506Z</creationTime>
      </creationInfo>
    </pick>
    <pick publicID="Pick/20220927000534.059605.48620">
      <time>
        <value>2022-09-27T00:01:10.415891Z</value>
      </time>
      <waveformID networkCode="EC" stationCode="MCRA" channelCode="BLN"/>
      <phaseHint>S</phaseHint>
      <evaluationMode>manual</evaluationMode>
      <creationInfo>
        <agencyID>IGEPN</agencyID>
        <author>mmejia@sc-gui.igepn.edu.ec</author>
        <creationTime>2022-09-27T00:05:34.059688Z</creationTime>
      </creationInfo>
    </pick>
    <pick publicID="Pick/20220927000534.059873.48621">
      <time>
        <value>2022-09-27T00:01:03.712205Z</value>
      </time>
      <waveformID networkCode="EC" stationCode="ARNL" channelCode="HHZ"/>
      <phaseHint>P</phaseHint>
      <evaluationMode>manual</evaluationMode>
      <creationInfo>
        <agencyID>IGEPN</agencyID>
        <author>mmejia@sc-gui.igepn.edu.ec</author>
        <creationTime>2022-09-27T00:05:34.059956Z</creationTime>
      </creationInfo>
    </pick>
    <pick publicID="Pick/20220927000534.060049.48622">
      <time>
        <value>2022-09-27T00:01:33.467914Z</value>
      </time>
      <waveformID networkCode="EC" stationCode="ARNL" channelCode="HHN"/>
      <phaseHint>S</phaseHint>
      <evaluationMode>manual</evaluationMode>
      <creationInfo>
        <agencyID>IGEPN</agencyID>
        <author>mmejia@sc-gui.igepn.edu.ec</author>
        <creationTime>2022-09-27T00:05:34.060131Z</creationTime>
      </creationInfo>
    </pick>
    <pick publicID="Pick/20220927000534.060232.48623">
      <time>
        <value>2022-09-27T00:01:06.534532Z</value>
      </time>
      <waveformID networkCode="EC" stationCode="SUSE" channelCode="HHN"/>
      <phaseHint>P</phaseHint>
      <evaluationMode>manual</evaluationMode>
      <creationInfo>
        <agencyID>IGEPN</agencyID>
        <author>mmejia@sc-gui.igepn.edu.ec</author>
        <creationTime>2022-09-27T00:05:34.060315Z</creationTime>
      </creationInfo>
    </pick>
    <pick publicID="Pick/20220927000534.060428.48624">
      <time>
        <value>2022-09-27T00:01:40.492196Z</value>
      </time>
      <waveformID networkCode="EC" stationCode="SUSE" channelCode="HHN"/>
      <phaseHint>S</phaseHint>
      <evaluationMode>manual</evaluationMode>
      <creationInfo>
        <agencyID>IGEPN</agencyID>
        <author>mmejia@sc-gui.igepn.edu.ec</author>
        <creationTime>2022-09-27T00:05:34.060512Z</creationTime>
      </creationInfo>
    </pick>
    <pick publicID="Pick/20220927000534.060622.48625">
      <time>
        <value>2022-09-27T00:01:07.871423Z</value>
      </time>
      <waveformID networkCode="EC" stationCode="PCRA" channelCode="HHZ"/>
      <phaseHint>P</phaseHint>
      <evaluationMode>manual</evaluationMode>
      <creationInfo>
        <agencyID>IGEPN</agencyID>
        <author>mmejia@sc-gui.igepn.edu.ec</author>
        <creationTime>2022-09-27T00:05:34.060709Z</creationTime>
      </creationInfo>
    </pick>
    <pick publicID="Pick/20220927000534.060805.48626">
      <time>
        <value>2022-09-27T00:01:41.926805Z</value>
      </time>
      <waveformID networkCode="EC" stationCode="PCRA" channelCode="HHN"/>
      <phaseHint>S</phaseHint>
      <evaluationMode>manual</evaluationMode>
      <creationInfo>
        <agencyID>IGEPN</agencyID>
        <author>mmejia@sc-gui.igepn.edu.ec</author>
        <creationTime>2022-09-27T00:05:34.060887Z</creationTime>
      </creationInfo>
    </pick>
    <pick publicID="Pick/20220927000534.060987.48627">
      <time>
        <value>2022-09-27T00:01:11.807824Z</value>
      </time>
      <waveformID networkCode="EC" stationCode="BOSC" channelCode="HHN"/>
      <phaseHint>P</phaseHint>
      <evaluationMode>manual</evaluationMode>
      <creationInfo>
        <agencyID>IGEPN</agencyID>
        <author>mmejia@sc-gui.igepn.edu.ec</author>
        <creationTime>2022-09-27T00:05:34.06107Z</creationTime>
      </creationInfo>
    </pick>
    <pick publicID="Pick/20220927000534.061168.48628">
      <time>
        <value>2022-09-27T00:01:33.198076Z</value>
      </time>
      <waveformID networkCode="EC" stationCode="MONB" channelCode="HHN"/>
      <phaseHint>P</phaseHint>
      <evaluationMode>manual</evaluationMode>
      <creationInfo>
        <agencyID>IGEPN</agencyID>
        <author>mmejia@sc-gui.igepn.edu.ec</author>
        <creationTime>2022-09-27T00:05:34.061251Z</creationTime>
      </creationInfo>
    </pick>
    <pick publicID="Pick/20220927000534.061348.48629">
      <time>
        <value>2022-09-27T00:01:31.882615Z</value>
      </time>
      <waveformID networkCode="EC" stationCode="JSCH" channelCode="HHN"/>
      <phaseHint>P</phaseHint>
      <evaluationMode>manual</evaluationMode>
      <creationInfo>
        <agencyID>IGEPN</agencyID>
        <author>mmejia@sc-gui.igepn.edu.ec</author>
        <creationTime>2022-09-27T00:05:34.061439Z</creationTime>
      </creationInfo>
    </pick>
    <pick publicID="Pick/20220927000534.061611.48630">
      <time>
        <value>2022-09-27T00:01:35.718126Z</value>
      </time>
      <waveformID networkCode="EC" stationCode="PORT" channelCode="HHN"/>
      <phaseHint>P</phaseHint>
      <evaluationMode>manual</evaluationMode>
      <creationInfo>
        <agencyID>IGEPN</agencyID>
        <author>mmejia@sc-gui.igepn.edu.ec</author>
        <creationTime>2022-09-27T00:05:34.061693Z</creationTime>
      </creationInfo>
    </pick>
    <pick publicID="Pick/20220927000534.061799.48631">
      <time>
        <value>2022-09-27T00:01:36.436075Z</value>
      </time>
      <waveformID networkCode="EC" stationCode="BMAS" channelCode="HHZ"/>
      <phaseHint>P</phaseHint>
      <evaluationMode>manual</evaluationMode>
      <creationInfo>
        <agencyID>IGEPN</agencyID>
        <author>mmejia@sc-gui.igepn.edu.ec</author>
        <creationTime>2022-09-27T00:05:34.061883Z</creationTime>
      </creationInfo>
    </pick>
    <pick publicID="Pick/20220927000534.061985.48632">
      <time>
        <value>2022-09-27T00:01:43.552215Z</value>
      </time>
      <waveformID networkCode="EC" stationCode="BPAT" channelCode="BHN"/>
      <phaseHint>P</phaseHint>
      <evaluationMode>manual</evaluationMode>
      <creationInfo>
        <agencyID>IGEPN</agencyID>
        <author>mmejia@sc-gui.igepn.edu.ec</author>
        <creationTime>2022-09-27T00:05:34.062068Z</creationTime>
      </creationInfo>
    </pick>
    <amplitude publicID="Amplitude/20220927000555.148429.48749">
      <type>Mjma</type>
      <amplitude>
        <value>2.514188999</value>
      </amplitude>
      <timeWindow>
        <reference>2022-09-27T00:00:53.02Z</reference>
        <begin>-18.6</begin>
        <end>43.82</end>
      </timeWindow>
      <snr>10.14975673</snr>
      <pickID>Pick/20220927000534.058836.48617</pickID>
      <waveformID networkCode="PE" stationCode="SNIG" channelCode="BHZ"/>
      <creationInfo>
        <agencyID>IGEPN</agencyID>
        <author>mmejia@sc-gui.igepn.edu.ec</author>
        <creationTime>2022-09-27T00:05:55.148464Z</creationTime>
      </creationInfo>
    </amplitude>
    <amplitude publicID="Amplitude/20220927000555.247603.48754">
      <type>Mjma</type>
      <amplitude>
        <value>3.71552257</value>
      </amplitude>
      <timeWindow>
        <reference>2022-09-27T00:01:13.168393Z</reference>
        <begin>-28.49</begin>
        <end>57.53</end>
      </timeWindow>
      <snr>3.940490809</snr>
      <pickID>Pick/20220927000534.059414.48619</pickID>
      <waveformID networkCode="EC" stationCode="MCRA" channelCode="BLZ"/>
      <creationInfo>
        <agencyID>IGEPN</agencyID>
        <author>mmejia@sc-gui.igepn.edu.ec</author>
        <creationTime>2022-09-27T00:05:55.247637Z</creationTime>
      </creationInfo>
    </amplitude>
    <amplitude publicID="Amplitude/20220927000555.502388.48765">
      <type>Mjma</type>
      <amplitude>
        <value>3.376451515</value>
      </amplitude>
      <timeWindow>
        <reference>2022-09-27T00:01:35.988393Z</reference>
        <begin>-37.28</begin>
        <end>78.94</end>
      </timeWindow>
      <snr>15.73189896</snr>
      <pickID>Pick/20220927000534.059873.48621</pickID>
      <waveformID networkCode="EC" stationCode="ARNL" channelCode="HHZ"/>
      <creationInfo>
        <agencyID>IGEPN</agencyID>
        <author>mmejia@sc-gui.igepn.edu.ec</author>
        <creationTime>2022-09-27T00:05:55.502423Z</creationTime>
      </creationInfo>
    </amplitude>
    <amplitude publicID="Amplitude/20220927000555.625502.48787">
      <type>Mjma</type>
      <amplitude>
        <value>2.292032648</value>
      </amplitude>
      <timeWindow>
        <reference>2022-09-27T00:01:44.568393Z</reference>
        <begin>-43.03</begin>
        <end>76.32</end>
      </timeWindow>
      <snr>10.76553175</snr>
      <pickID>Pick/20220927000534.060232.48623</pickID>
      <waveformID networkCode="EC" stationCode="SUSE" channelCode="HHZ"/>
      <creationInfo>
        <agencyID>IGEPN</agencyID>
        <author>mmejia@sc-gui.igepn.edu.ec</author>
        <creationTime>2022-09-27T00:05:55.625538Z</creationTime>
      </creationInfo>
    </amplitude>
    <amplitude publicID="Amplitude/20220927000555.572871.48776">
      <type>Mjma</type>
      <amplitude>
        <value>1.088434811</value>
      </amplitude>
      <timeWindow>
        <reference>2022-09-27T00:01:49.948394Z</reference>
        <begin>-47.08</begin>
        <end>78.8</end>
      </timeWindow>
      <snr>4.054127979</snr>
      <pickID>Pick/20220927000534.060622.48625</pickID>
      <waveformID networkCode="EC" stationCode="PCRA" channelCode="HHZ"/>
      <creationInfo>
        <agencyID>IGEPN</agencyID>
        <author>mmejia@sc-gui.igepn.edu.ec</author>
        <creationTime>2022-09-27T00:05:55.572906Z</creationTime>
      </creationInfo>
    </amplitude>
    <amplitude publicID="Amplitude/20220927000555.598764.48781">
      <type>Mjma</type>
      <amplitude>
        <value>1.039316071</value>
      </amplitude>
      <timeWindow>
        <reference>2022-09-27T00:01:54.328393Z</reference>
        <begin>-47.52</begin>
        <end>87.83</end>
      </timeWindow>
      <snr>5.624882933</snr>
      <pickID>Pick/20220927000534.060987.48627</pickID>
      <waveformID networkCode="EC" stationCode="BOSC" channelCode="HHZ"/>
      <creationInfo>
        <agencyID>IGEPN</agencyID>
        <author>mmejia@sc-gui.igepn.edu.ec</author>
        <creationTime>2022-09-27T00:05:55.598799Z</creationTime>
      </creationInfo>
    </amplitude>
    <amplitude publicID="Amplitude/20220927000555.637577.48788">
      <type>Mjma</type>
      <amplitude>
        <value>0.3351943288</value>
      </amplitude>
      <timeWindow>
        <reference>2022-09-27T00:02:23.058393Z</reference>
        <begin>-54.86</begin>
        <end>124.68</end>
      </timeWindow>
      <snr>1.429256447</snr>
      <pickID>Pick/20220927000534.061168.48628</pickID>
      <waveformID networkCode="EC" stationCode="MONB" channelCode="HHZ"/>
      <creationInfo>
        <agencyID>IGEPN</agencyID>
        <author>mmejia@sc-gui.igepn.edu.ec</author>
        <creationTime>2022-09-27T00:05:55.637617Z</creationTime>
      </creationInfo>
    </amplitude>
    <amplitude publicID="Amplitude/20220927000555.693801.48796">
      <type>Mjma</type>
      <amplitude>
        <value>0.4486756636</value>
      </amplitude>
      <timeWindow>
        <reference>2022-09-27T00:02:58.078393Z</reference>
        <begin>-91.2</begin>
        <end>91.02</end>
      </timeWindow>
      <snr>1.661875797</snr>
      <pickID>Pick/20220927000534.061348.48629</pickID>
      <waveformID networkCode="EC" stationCode="JSCH" channelCode="HHZ"/>
      <creationInfo>
        <agencyID>IGEPN</agencyID>
        <author>mmejia@sc-gui.igepn.edu.ec</author>
        <creationTime>2022-09-27T00:05:55.693835Z</creationTime>
      </creationInfo>
    </amplitude>
    <amplitude publicID="Amplitude/20220927000555.525587.48768">
      <type>Mjma</type>
      <amplitude>
        <value>0.7421513971</value>
      </amplitude>
      <timeWindow>
        <reference>2022-09-27T00:03:26.038396Z</reference>
        <begin>-115.32</begin>
        <end>77.31</end>
      </timeWindow>
      <snr>1.696572707</snr>
      <pickID>Pick/20220927000534.061611.48630</pickID>
      <waveformID networkCode="EC" stationCode="PORT" channelCode="HHZ"/>
      <creationInfo>
        <agencyID>IGEPN</agencyID>
        <author>mmejia@sc-gui.igepn.edu.ec</author>
        <creationTime>2022-09-27T00:05:55.525622Z</creationTime>
      </creationInfo>
    </amplitude>
    <amplitude publicID="Amplitude/20220927000555.676752.48792">
      <type>Mjma</type>
      <amplitude>
        <value>0.2456005222</value>
      </amplitude>
      <timeWindow>
        <reference>2022-09-27T00:02:54.294999Z</reference>
        <begin>-82.86</begin>
        <end>110.59</end>
      </timeWindow>
      <snr>2.917362711</snr>
      <pickID>Pick/20220927000534.061799.48631</pickID>
      <waveformID networkCode="EC" stationCode="BMAS" channelCode="HHZ"/>
      <creationInfo>
        <agencyID>IGEPN</agencyID>
        <author>mmejia@sc-gui.igepn.edu.ec</author>
        <creationTime>2022-09-27T00:05:55.676788Z</creationTime>
      </creationInfo>
    </amplitude>
    <amplitude publicID="Amplitude/20220927000555.563552.48774">
      <type>Mjma</type>
      <amplitude>
        <value>0.6112088888</value>
      </amplitude>
      <timeWindow>
        <reference>2022-09-27T00:03:00.76Z</reference>
        <begin>-82.2</begin>
        <end>111.46</end>
      </timeWindow>
      <snr>2.795498339</snr>
      <pickID>Pick/20220927000534.061985.48632</pickID>
      <waveformID networkCode="EC" stationCode="BPAT" channelCode="BHZ"/>
      <creationInfo>
        <agencyID>IGEPN</agencyID>
        <author>mmejia@sc-gui.igepn.edu.ec</author>
        <creationTime>2022-09-27T00:05:55.563587Z</creationTime>
      </creationInfo>
    </amplitude>
    <amplitude publicID="Amplitude/20220927000555.151771.48750">
      <type>ML</type>
      <amplitude>
        <value>8.799254594</value>
        <lowerUncertainty>1.920173966</lowerUncertainty>
        <upperUncertainty>1.920173966</upperUncertainty>
      </amplitude>
      <timeWindow>
        <reference>2022-09-27T00:00:53.97Z</reference>
        <begin>-19.549999</begin>
        <end>42.87</end>
      </timeWindow>
      <pickID>Pick/20220927000534.058836.48617</pickID>
      <waveformID networkCode="PE" stationCode="SNIG" channelCode="BH"/>
      <creationInfo>
        <agencyID>IGEPN</agencyID>
        <author>mmejia@sc-gui.igepn.edu.ec</author>
        <creationTime>2022-09-27T00:05:55.151809Z</creationTime>
      </creationInfo>
    </amplitude>
    <amplitude publicID="Amplitude/20220927000555.255062.48755">
      <type>ML</type>
      <amplitude>
        <value>6.423683178</value>
        <lowerUncertainty>0.878894346</lowerUncertainty>
        <upperUncertainty>0.878894346</upperUncertainty>
      </amplitude>
      <timeWindow>
        <reference>2022-09-27T00:01:15.403394Z</reference>
        <begin>-30.724999</begin>
        <end>55.295</end>
      </timeWindow>
      <pickID>Pick/20220927000534.059414.48619</pickID>
      <waveformID networkCode="EC" stationCode="MCRA" channelCode="BL"/>
      <creationInfo>
        <agencyID>IGEPN</agencyID>
        <author>mmejia@sc-gui.igepn.edu.ec</author>
        <creationTime>2022-09-27T00:05:55.255099Z</creationTime>
      </creationInfo>
    </amplitude>
    <amplitude publicID="Amplitude/20220927000555.510132.48766">
      <type>ML</type>
      <amplitude>
        <value>7.25155109</value>
        <lowerUncertainty>3.334169706</lowerUncertainty>
        <upperUncertainty>3.334169706</upperUncertainty>
      </amplitude>
      <timeWindow>
        <reference>2022-09-27T00:01:38.343393Z</reference>
        <begin>-39.634999</begin>
        <end>76.585</end>
      </timeWindow>
      <pickID>Pick/20220927000534.059873.48621</pickID>
      <waveformID networkCode="EC" stationCode="ARNL" channelCode="HH"/>
      <creationInfo>
        <agencyID>IGEPN</agencyID>
        <author>mmejia@sc-gui.igepn.edu.ec</author>
        <creationTime>2022-09-27T00:05:55.510168Z</creationTime>
      </creationInfo>
    </amplitude>
    <amplitude publicID="Amplitude/20220927000555.61982.48785">
      <type>ML</type>
      <amplitude>
        <value>7.408594687</value>
        <lowerUncertainty>0.9301942345</lowerUncertainty>
        <upperUncertainty>0.9301942345</upperUncertainty>
      </amplitude>
      <timeWindow>
        <reference>2022-09-27T00:01:43.243393Z</reference>
        <begin>-41.704999</begin>
        <end>77.645</end>
      </timeWindow>
      <pickID>Pick/20220927000534.060232.48623</pickID>
      <waveformID networkCode="EC" stationCode="SUSE" channelCode="HH"/>
      <creationInfo>
        <agencyID>IGEPN</agencyID>
        <author>mmejia@sc-gui.igepn.edu.ec</author>
        <creationTime>2022-09-27T00:05:55.619854Z</creationTime>
      </creationInfo>
    </amplitude>
    <amplitude publicID="Amplitude/20220927000555.577136.48777">
      <type>ML</type>
      <amplitude>
        <value>1.456868571</value>
        <lowerUncertainty>0.05015490034</lowerUncertainty>
        <upperUncertainty>0.05015490034</upperUncertainty>
      </amplitude>
      <timeWindow>
        <reference>2022-09-27T00:01:47.203395Z</reference>
        <begin>-44.335</begin>
        <end>81.545001</end>
      </timeWindow>
      <pickID>Pick/20220927000534.060622.48625</pickID>
      <waveformID networkCode="EC" stationCode="PCRA" channelCode="HH"/>
      <creationInfo>
        <agencyID>IGEPN</agencyID>
        <author>mmejia@sc-gui.igepn.edu.ec</author>
        <creationTime>2022-09-27T00:05:55.577172Z</creationTime>
      </creationInfo>
    </amplitude>
    <amplitude publicID="Amplitude/20220927000555.592766.48779">
      <type>ML</type>
      <amplitude>
        <value>3.598731643</value>
        <lowerUncertainty>0.3464895459</lowerUncertainty>
        <upperUncertainty>0.3464895459</upperUncertainty>
      </amplitude>
      <timeWindow>
        <reference>2022-09-27T00:01:56.528393Z</reference>
        <begin>-49.719999</begin>
        <end>85.63</end>
      </timeWindow>
      <pickID>Pick/20220927000534.060987.48627</pickID>
      <waveformID networkCode="EC" stationCode="BOSC" channelCode="HH"/>
      <creationInfo>
